*******************************************************************************
JPL/HORIZONS                     Dimorphos (Didymos I)                120065803
Updated: 2024-Mar-01       Solution (s542) date: 2023-Sep-19
 
This is the DART mission's post-impact reconstructed trajectory for Dimorphos, 
-satellite- of the 65803 Didymos system & the IMPACTED TARGET.

The trajectory data includes the pre- and post-impact ephemeris for Dimorphos.
For surface cartographic locations, pre- and post-impact Dimorphos rotation 
models are used automatically.

To use Dimorphos as a coordinate origin, set center to "@ 120065803". 

DART impact was on 26-Sep-2022 @ 23:14:24.183 UTC, equivalent to 2022-Sep-26
23:15:33.365359 TDB.

Related objects:
  DART spacecraft           :      -135 (mission navigation)
  LICIACube spacecraft      :      -210 (mission navigation)
  Didymos system barycenter :  20065803 (JPL s205 mission reconstruction)
                                 65803; (latest JPL ground-based solution)
  Didymos primary body      : 920065803 (JPL s542 reconstruction)

 Dimorphos physical parameters:
  Radii   ~ (0.09078 x 0.06932 x 0.06131) km, 145.6 m volume equivalent diam.
  Volume  ~ 0.001616 km^3
  GM_Dimo ~ 2.98047E-10 km^3/s^2
            Possible Dimorphos mass-ejection (0.1-0.5%) is not reflected here,
            perhaps measured later by follow-on ESA mission Hera.

 Pre-impact Dimorphos spin pole (ICRF at J2000.0 epoch, east long. positive)
  RA  =  69.32686 deg.  (310.0 deg. ecliptic longitude)
  DEC = -72.72455 deg.  (-80.6 deg. ecliptic latitude)
  PM  =  73.07056508 deg., 724.7243883 deg/day, 1.0271E-06 deg^2/day^2
         (period is 11.92177 hrs)

 Post-impact Dimorphos spin pole 
  A dynamic frame where the X axis points from Dimorphos center to Didymos 
  center. The Z axis is parallel to the pre-impact Z axis.
  RA  =  69.32686 deg.  (310.0 deg. ecliptic longitude)
  DEC = -72.72455 deg.  (-80.6 deg. ecliptic latitude)

 Name                                     Start (TDB)        Stop (TDB)
 ---------------------------------------  -----------------  -----------------
 didymos_system_s542_v01                  2000-Jan-01 00:00  2024-Dec-31 00:00
*******************************************************************************


*******************************************************************************
Ephemeris / WWW_USER Tue Apr 15 10:30:50 2025 Pasadena, USA      / Horizons
*******************************************************************************
Target body name: Dimorphos (120065803)           {source: dart_v03_hrzn}
Center body name: Solar System Barycenter (0)     {source: DE441}
Center-site name: BODY CENTER
*******************************************************************************
Start time      : A.D. 2021-Sep-09 00:00:00.0000 TDB
Stop  time      : A.D. 2022-May-15 00:00:00.0000 TDB
Step-size       : 1440 minutes
*******************************************************************************
Center geodetic : 0.0, 0.0, 0.0                   {E-lon(deg),Lat(deg),Alt(km)}
Center cylindric: 0.0, 0.0, 0.0                   {E-lon(deg),Dxy(km),Dz(km)}
Center radii    : (undefined)
Output units    : KM-S
Calendar mode   : Mixed Julian/Gregorian
Output type     : GEOMETRIC cartesian states
Output format   : 3 (position, velocity, LT, range, range-rate)
Reference frame : Ecliptic of J2000.0
*******************************************************************************
JDTDB
   X     Y     Z
   VX    VY    VZ
   LT    RG    RR
*******************************************************************************
$$SOE
2459550.500000000 = A.D. 2021-Dec-02 00:00:00.0000 TDB 
 X =-2.310961777852968E+08 Y =-2.419541771726984E+08 Z = 8.952316562327549E+06
 VX= 1.302291465946191E+01 VY=-9.182027503266459E+00 VZ=-9.003410478225446E-01
 LT= 1.116455576198558E+03 RG= 3.347049614363719E+08 RR=-2.378142310033598E+00
2459551.500000000 = A.D. 2021-Dec-03 00:00:00.0000 TDB 
 X =-2.299679510239482E+08 Y =-2.427442961554363E+08 Z = 8.874410763953239E+06
 VX= 1.309342199189316E+01 VY=-9.107362383059243E+00 VZ=-9.030722155899560E-01
 LT= 1.115764703504691E+03 RG= 3.344978430133123E+08 RR=-2.416521979239936E+00
2459552.500000000 = A.D. 2021-Dec-04 00:00:00.0000 TDB 
 X =-2.288336430875614E+08 Y =-2.435279476603600E+08 Z = 8.796269680722266E+06
 VX= 1.316371044243616E+01 VY=-9.032318970497940E+00 VZ=-9.057842398934830E-01
 LT= 1.115062771415488E+03 RG= 3.342874090669412E+08 RR=-2.454909206214397E+00
2459553.500000000 = A.D. 2021-Dec-05 00:00:00.0000 TDB 
 X =-2.276932729121850E+08 Y =-2.443050988398189E+08 Z = 8.717894957771376E+06
 VX= 1.323377915727077E+01 VY=-8.956895786334327E+00 VZ=-9.084770637249568E-01
 LT= 1.114349777456661E+03 RG= 3.340736588554853E+08 RR=-2.493303989917659E+00
2459554.500000000 = A.D. 2021-Dec-06 00:00:00.0000 TDB 
 X =-2.265468595004233E+08 Y =-2.450757167183062E+08 Z = 8.639288246224940E+06
 VX= 1.330362726008289E+01 VY=-8.881091321807537E+00 VZ=-9.111506292100722E-01
 LT= 1.113625719135478E+03 RG= 3.338565916316426E+08 RR=-2.531706334129645E+00
2459555.500000000 = A.D. 2021-Dec-07 00:00:00.0000 TDB 
 X =-2.253944219235028E+08 Y =-2.458397681905835E+08 Z = 8.560451203344658E+06
 VX= 1.337325385240374E+01 VY=-8.804904038682087E+00 VZ=-9.138048775047056E-01
 LT= 1.112890593941680E+03 RG= 3.336362066428562E+08 RR=-2.570116247814851E+00
2459556.500000000 = A.D. 2021-Dec-08 00:00:00.0000 TDB 
 X =-2.242359793233666E+08 Y =-2.465972200197968E+08 Z = 8.481385492680967E+06
 VX= 1.344265801392965E+01 VY=-8.728332369337432E+00 VZ=-9.164397486854843E-01
 LT= 1.112144399348420E+03 RG= 3.334125031315965E+08 RR=-2.608533745422687E+00
2459557.500000000 = A.D. 2021-Dec-09 00:00:00.0000 TDB 
 X =-2.230715509147950E+08 Y =-2.473480388355853E+08 Z = 8.402092784226164E+06
 VX= 1.351183880281811E+01 VY=-8.651374716907906E+00 VZ=-9.190551816352688E-01
 LT= 1.111387132813223E+03 RG= 3.331854803356487E+08 RR=-2.646958847119874E+00
2459558.500000000 = A.D. 2021-Dec-10 00:00:00.0000 TDB 
 X =-2.219011559875546E+08 Y =-2.480921911321824E+08 Z = 8.322574754569471E+06
 VX= 1.358079525595551E+01 VY=-8.574029455471498E+00 VZ=-9.216511139241432E-01
 LT= 1.110618791778977E+03 RG= 3.329551374884096E+08 RR=-2.685391578952344E+00
2459559.500000000 = A.D. 2021-Dec-11 00:00:00.0000 TDB 
 X =-2.207248139085750E+08 Y =-2.488296432665092E+08 Z = 8.242833087053433E+06
 VX= 1.364952638919131E+01 VY=-8.496294930285062E+00 VZ=-9.242274816865921E-01
 LT= 1.109839373674940E+03 RG= 3.327214738191906E+08 RR=-2.723831972934391E+00
2459560.500000000 = A.D. 2021-Dec-12 00:00:00.0000 TDB 
 X =-2.195425441241547E+08 Y =-2.495603614562598E+08 Z = 8.162869471932977E+06
 VX= 1.371803119753738E+01 VY=-8.418169458063735E+00 VZ=-9.267842194959020E-01
 LT= 1.109048875917780E+03 RG= 3.324844885535282E+08 RR=-2.762280067065384E+00
2459561.500000000 = A.D. 2021-Dec-13 00:00:00.0000 TDB 
 X =-2.183543661621964E+08 Y =-2.502843117779785E+08 Z = 8.082685606535673E+06
 VX= 1.378630865532704E+01 VY=-8.339651327304997E+00 VZ=-9.293212602357759E-01
 LT= 1.108247295912640E+03 RG= 3.322441809135037E+08 RR=-2.800735905269959E+00
2459562.500000000 = A.D. 2021-Dec-14 00:00:00.0000 TDB 
 X =-2.171602996344722E+08 Y =-2.510014601651289E+08 Z = 8.002283195424184E+06
 VX= 1.385435771632861E+01 VY=-8.260738798648516E+00 VZ=-9.318385349704568E-01
 LT= 1.107434631054224E+03 RG= 3.320005501180688E+08 RR=-2.839199537264603E+00
2459563.500000000 = A.D. 2021-Dec-15 00:00:00.0000 TDB 
 X =-2.159603642389202E+08 Y =-2.517117724061555E+08 Z = 7.921663950560749E+06
 VX= 1.392217731381280E+01 VY=-8.181430105274281E+00 VZ=-9.343359728139222E-01
 LT= 1.106610878727917E+03 RG= 3.317535953833823E+08 RR=-2.877671018348657E+00
2459564.500000000 = A.D. 2021-Dec-16 00:00:00.0000 TDB 
 X =-2.147545797619710E+08 Y =-2.524152141425357E+08 Z = 7.840829591473565E+06
 VX= 1.398976636056984E+01 VY=-8.101723453333136E+00 VZ=-9.368135007988827E-01
 LT= 1.105776036310935E+03 RG= 3.315033159231524E+08 RR=-2.916150409121402E+00
2459565.500000000 = A.D. 2021-Dec-17 00:00:00.0000 TDB 
 X =-2.135429660809080E+08 Y =-2.531117508668241E+08 Z = 7.759781845425263E+06
 VX= 1.405712374887337E+01 VY=-8.021617022406341E+00 VZ=-9.392710437463458E-01
 LT= 1.104930101173494E+03 RG= 3.312497109489903E+08 RR=-2.954637775126435E+00
2459566.500000000 = A.D. 2021-Dec-18 00:00:00.0000 TDB 
 X =-2.123255431662588E+08 Y =-2.538013479206885E+08 Z = 7.678522447583467E+06
 VX= 1.412424835038872E+01 VY=-7.941108965990503E+00 VZ=-9.417085241364278E-01
 LT= 1.104073070680019E+03 RG= 3.309927796707705E+08 RR=-2.993133186424959E+00
2459567.500000000 = A.D. 2021-Dec-19 00:00:00.0000 TDB 
 X =-2.111023310842211E+08 Y =-2.544839704929366E+08 Z = 7.597053141193435E+06
 VX= 1.419113901602349E+01 VY=-7.860197412003946E+00 VZ=-9.441258619811612E-01
 LT= 1.103204942190381E+03 RG= 3.307325212970022E+08 RR=-3.031636717100382E+00
2459568.500000000 = A.D. 2021-Dec-20 00:00:00.0000 TDB 
 X =-2.098733499991216E+08 Y =-2.551595836175343E+08 Z = 7.515375677752927E+06
 VX= 1.425779457571862E+01 VY=-7.778880463310349E+00 VZ=-9.465229746999753E-01
 LT= 1.102325713061163E+03 RG= 3.304689350352088E+08 RR=-3.070148444697014E+00
2459569.500000000 = A.D. 2021-Dec-21 00:00:00.0000 TDB 
 X =-2.086386201759107E+08 Y =-2.558281521716151E+08 Z = 7.433491817189306E+06
 VX= 1.432421383817844E+01 VY=-7.697156198255385E+00 VZ=-9.488997769985259E-01
 LT= 1.101435380646959E+03 RG= 3.302020200923174E+08 RR=-3.108668449596202E+00
2459570.500000000 = A.D. 2021-Dec-22 00:00:00.0000 TDB 
 X =-2.073981619826917E+08 Y =-2.564896408734805E+08 Z = 7.351403328038588E+06
 VX= 1.439039559053882E+01 VY=-7.615022671212081E+00 VZ=-9.512561807515465E-01
 LT= 1.100533942301707E+03 RG= 3.299317756750587E+08 RR=-3.147196814333616E+00
